IRIDIUM 119             
1 42959U 17061E   24075.30002854  .00000293  00000+0  97453-4 0  9999
2 42959  86.4026   9.5423 0002102  90.8414 269.3023 14.34216516336720
IRIDIUM 107             
1 42960U 17061F   24075.31906047  .00000219  00000+0  71107-4 0  9995
2 42960  86.4028   9.5505 0002418  90.1452 270.0021 14.34217766336736
IRIDIUM 132             
1 42961U 17061G   24075.32540140  .00000108  00000+0  31572-4 0  9994
2 42961  86.4027   9.5332 0002334  91.0972 269.0491 14.34217153336737
IRIDIUM 139             
1 42963U 17061J   24075.29368871  .00000215  00000+0  69651-4 0  9999
2 42963  86.4029   9.5978 0002356  88.1900 271.9566 14.34218840336750
IRIDIUM 135             
1 43070U 17083A   24075.18536178  .00000167  00000+0  52605-4 0  9995
2 43070  86.3949 306.4010 0002394  80.0155 280.1311 14.34217433326049
